start=new Date('2022-09-06T00:00:00.000Z').valueOf();
sats=[{"REV_AT_EPOCH":"10665","NORAD_CAT_ID":"46579","MEAN_ANOMALY":"280.3051","PERIOD":"95.592","SEMIMAJOR_AXIS":"6925.324","OBJECT_ID":"2020-070AZ","REF_FRAME":"TEME","EPHEMERIS_TYPE":"0","OBJECT_NAME":"STARLINK-1705","CENTER_NAME":"EARTH","GP_ID":"211831400","TIME_SYSTEM":"UTC","LAUNCH_DATE":"2020-10-06","TLE_LINE1":"1 46579U 20070AZ  22248.78251093  .00000069  00000-0  23543-4 0  9999","RA_OF_ASC_NODE":"151.8366","DECAY_DATE":null,"ARG_OF_PERICENTER":"79.8118","SITE":"AFETR","ELEMENT_SET_NO":"999","EPOCH":"2022-09-05T18:46:48.944352","FILE":"3559723","PERIAPSIS":"546.084","ECCENTRICITY":"0.00015960","APOAPSIS":"548.295","MEAN_MOTION":"15.06407876","MEAN_MOTION_DOT":"0.00000069","MEAN_MOTION_DDOT":"0.0000000000000","COUNTRY_CODE":"US","RCS_SIZE":"LARGE","CLASSIFICATION_TYPE":"U","MEAN_ELEMENT_THEORY":"SGP4","OBJECT_TYPE":"PAYLOAD","INCLINATION":"53.0541","BSTAR":"0.00002354300000","TLE_LINE2":"2 46579  53.0541 151.8366 0001596  79.8118 280.3051 15.06407876106657"},{"ARG_OF_PERICENTER":"66.8884","FILE":"3559490","PERIAPSIS":"545.976","ELEMENT_SET_NO":"999","EPOCH":"2022-09-05T10:17:16.298304","SITE":"AFETR","MEAN_ELEMENT_THEORY":"SGP4","RCS_SIZE":"LARGE","CLASSIFICATION_TYPE":"U","COUNTRY_CODE":"US","MEAN_MOTION_DDOT":"0.0000000000000","MEAN_MOTION_DOT":"0.00001155","APOAPSIS":"548.404","ECCENTRICITY":"0.00017530","MEAN_MOTION":"15.06407570","TLE_LINE2":"2 46580  53.0545 153.4230 0001753  66.8884 293.2290 15.06407570106606","BSTAR":"0.00009638200000","INCLINATION":"53.0545","OBJECT_TYPE":"PAYLOAD","REV_AT_EPOCH":"10660","PERIOD":"95.592","MEAN_ANOMALY":"293.2290","NORAD_CAT_ID":"46580","OBJECT_NAME":"STARLINK-1708","EPHEMERIS_TYPE":"0","OBJECT_ID":"2020-070BA","REF_FRAME":"TEME","SEMIMAJOR_AXIS":"6925.325","DECAY_DATE":null,"RA_OF_ASC_NODE":"153.4230","TLE_LINE1":"1 46580U 20070BA  22248.42866086  .00001155  00000-0  96382-4 0  9994","TIME_SYSTEM":"UTC","LAUNCH_DATE":"2020-10-06","GP_ID":"211799617","CENTER_NAME":"EARTH"},{"COUNTRY_CODE":"US","RCS_SIZE":"LARGE","CLASSIFICATION_TYPE":"U","MEAN_ELEMENT_THEORY":"SGP4","MEAN_MOTION":"15.06410669","APOAPSIS":"548.217","ECCENTRICITY":"0.00014960","MEAN_MOTION_DOT":"0.00001592","MEAN_MOTION_DDOT":"0.0000000000000","TLE_LINE2":"2 46581  53.0526 148.2902 0001496  76.9736 283.1420 15.06410669106679","BSTAR":"0.00012573000000","OBJECT_TYPE":"PAYLOAD","INCLINATION":"53.0526","ARG_OF_PERICENTER":"76.9736","ELEMENT_SET_NO":"999","EPOCH":"2022-09-05T11:03:03.074400","PERIAPSIS":"546.145","FILE":"3559682","SITE":"AFETR","OBJECT_NAME":"STARLINK-1712","SEMIMAJOR_AXIS":"6925.316","REF_FRAME":"TEME","OBJECT_ID":"2020-070BB","EPHEMERIS_TYPE":"0","TLE_LINE1":"1 46581U 20070BB  22248.46045225  .00001592  00000-0  12573-3 0  9997","RA_OF_ASC_NODE":"148.2902","DECAY_DATE":null,"CENTER_NAME":"EARTH","GP_ID":"211810888","LAUNCH_DATE":"2020-10-06","TIME_SYSTEM":"UTC","REV_AT_EPOCH":"10667","MEAN_ANOMALY":"283.1420","PERIOD":"95.591","NORAD_CAT_ID":"46581"},{"REV_AT_EPOCH":"10671","PERIOD":"95.591","MEAN_ANOMALY":"269.5588","NORAD_CAT_ID":"46582","OBJECT_NAME":"STARLINK-1728","REF_FRAME":"TEME","OBJECT_ID":"2020-070BC","EPHEMERIS_TYPE":"0","SEMIMAJOR_AXIS":"6925.284","DECAY_DATE":null,"TLE_LINE1":"1 46582U 20070BC  22248.71110109 -.00001209  00000-0 -62274-4 0  9991","RA_OF_ASC_NODE":"147.1667","TIME_SYSTEM":"UTC","LAUNCH_DATE":"2020-10-06","CENTER_NAME":"EARTH","GP_ID":"211830651","ARG_OF_PERICENTER":"90.5565","PERIAPSIS":"546.159","FILE":"3559723","EPOCH":"2022-09-05T17:03:59.134176","ELEMENT_SET_NO":"999","SITE":"AFETR","CLASSIFICATION_TYPE":"U","RCS_SIZE":"LARGE","MEAN_ELEMENT_THEORY":"SGP4","COUNTRY_CODE":"US","MEAN_MOTION_DOT":"-0.00001209","MEAN_MOTION_DDOT":"0.0000000000000","APOAPSIS":"548.138","ECCENTRICITY":"0.00014290","MEAN_MOTION":"15.06421112","BSTAR":"-0.00006227400000","TLE_LINE2":"2 46582  53.0526 147.1667 0001429  90.5565 269.5588 15.06421112106717","OBJECT_TYPE":"PAYLOAD","INCLINATION":"53.0526"},{"REF_FRAME":"TEME","OBJECT_ID":"2020-070BD","EPHEMERIS_TYPE":"0","SEMIMAJOR_AXIS":"6925.334","OBJECT_NAME":"STARLINK-1729","TIME_SYSTEM":"UTC","LAUNCH_DATE":"2020-10-06","CENTER_NAME":"EARTH","GP_ID":"211831900","DECAY_DATE":null,"TLE_LINE1":"1 46583U 20070BD  22248.82719637 -.00000750  00000-0 -31446-4 0  9992","RA_OF_ASC_NODE":"166.6409","REV_AT_EPOCH":"10644","NORAD_CAT_ID":"46583","PERIOD":"95.592","MEAN_ANOMALY":"284.4252","MEAN_MOTION_DOT":"-0.00000750","MEAN_MOTION_DDOT":"0.0000000000000","MEAN_MOTION":"15.06404898","APOAPSIS":"548.224","ECCENTRICITY":"0.00014810","CLASSIFICATION_TYPE":"U","RCS_SIZE":"LARGE","MEAN_ELEMENT_THEORY":"SGP4","COUNTRY_CODE":"US","OBJECT_TYPE":"PAYLOAD","INCLINATION":"53.0538","TLE_LINE2":"2 46583  53.0538 166.6409 0001481  75.6901 284.4252 15.06404898106443","BSTAR":"-0.00003144600000","ARG_OF_PERICENTER":"75.6901","SITE":"AFETR","FILE":"3559723","PERIAPSIS":"546.173","ELEMENT_SET_NO":"999","EPOCH":"2022-09-05T19:51:09.766368"},{"PERIAPSIS":"546.034","FILE":"3559400","ELEMENT_SET_NO":"999","EPOCH":"2022-09-05T10:47:07.643328","SITE":"AFETR","ARG_OF_PERICENTER":"74.0629","TLE_LINE2":"2 46584  53.0540 148.3372 0001673  74.0629 286.0544 15.06406931106369","BSTAR":"0.00004730000000","OBJECT_TYPE":"PAYLOAD","INCLINATION":"53.0540","CLASSIFICATION_TYPE":"U","RCS_SIZE":"LARGE","MEAN_ELEMENT_THEORY":"SGP4","COUNTRY_CODE":"US","MEAN_MOTION_DOT":"0.00000423","MEAN_MOTION_DDOT":"0.0000000000000","MEAN_MOTION":"15.06406931","APOAPSIS":"548.351","ECCENTRICITY":"0.00016730","PERIOD":"95.592","MEAN_ANOMALY":"286.0544","NORAD_CAT_ID":"46584","REV_AT_EPOCH":"10636","DECAY_DATE":null,"TLE_LINE1":"1 46584U 20070BE  22248.44939402  .00000423  00000-0  47300-4 0  9996","RA_OF_ASC_NODE":"148.3372","LAUNCH_DATE":"2020-10-06","TIME_SYSTEM":"UTC","CENTER_NAME":"EARTH","GP_ID":"211778806","OBJECT_NAME":"STARLINK-1732","REF_FRAME":"TEME","OBJECT_ID":"2020-070BE","EPHEMERIS_TYPE":"0","SEMIMAJOR_AXIS":"6925.327"},{"PERIOD":"95.591","MEAN_ANOMALY":"291.2356","NORAD_CAT_ID":"46585","REV_AT_EPOCH":"10671","DECAY_DATE":null,"TLE_LINE1":"1 46585U 20070BF  22248.73226313  .00000418  00000-0  46952-4 0  9995","RA_OF_ASC_NODE":"147.0561","LAUNCH_DATE":"2020-10-06","TIME_SYSTEM":"UTC","CENTER_NAME":"EARTH","GP_ID":"211830401","OBJECT_NAME":"STARLINK-1736","OBJECT_ID":"2020-070BF","REF_FRAME":"TEME","EPHEMERIS_TYPE":"0","SEMIMAJOR_AXIS":"6925.303","FILE":"3559723","PERIAPSIS":"545.940","ELEMENT_SET_NO":"999","EPOCH":"2022-09-05T17:34:27.534432","SITE":"AFETR","ARG_OF_PERICENTER":"68.8823","BSTAR":"0.00004695200000","TLE_LINE2":"2 46585  53.0546 147.0561 0001773  68.8823 291.2356 15.06414963106712","OBJECT_TYPE":"PAYLOAD","INCLINATION":"53.0546","RCS_SIZE":"LARGE","CLASSIFICATION_TYPE":"U","MEAN_ELEMENT_THEORY":"SGP4","COUNTRY_CODE":"US","MEAN_MOTION_DOT":"0.00000418","MEAN_MOTION_DDOT":"0.0000000000000","APOAPSIS":"548.396","ECCENTRICITY":"0.00017730","MEAN_MOTION":"15.06414963"},{"REV_AT_EPOCH":"10671","PERIOD":"95.592","MEAN_ANOMALY":"284.0313","NORAD_CAT_ID":"46586","OBJECT_NAME":"STARLINK-1737","EPHEMERIS_TYPE":"0","REF_FRAME":"TEME","OBJECT_ID":"2020-070BG","SEMIMAJOR_AXIS":"6925.327","DECAY_DATE":null,"RA_OF_ASC_NODE":"147.1040","TLE_LINE1":"1 46586U 20070BG  22248.72215537  .00009251  00000-0  63899-3 0  9993","TIME_SYSTEM":"UTC","LAUNCH_DATE":"2020-10-06","GP_ID":"211831150","CENTER_NAME":"EARTH","ARG_OF_PERICENTER":"76.0856","FILE":"3559723","PERIAPSIS":"546.069","ELEMENT_SET_NO":"999","EPOCH":"2022-09-05T17:19:54.223968","SITE":"AFETR","MEAN_ELEMENT_THEORY":"SGP4","CLASSIFICATION_TYPE":"U","RCS_SIZE":"LARGE","COUNTRY_CODE":"US","MEAN_MOTION_DDOT":"0.0000000000000","MEAN_MOTION_DOT":"0.00009251","MEAN_MOTION":"15.06406994","APOAPSIS":"548.315","ECCENTRICITY":"0.00016220","BSTAR":"0.00063899000000","TLE_LINE2":"2 46586  53.0520 147.1040 0001622  76.0856 284.0313 15.06406994106716","INCLINATION":"53.0520","OBJECT_TYPE":"PAYLOAD"},{"MEAN_ANOMALY":"294.2869","PERIOD":"95.591","NORAD_CAT_ID":"46588","REV_AT_EPOCH":"10662","TLE_LINE1":"1 46588U 20070BJ  22248.10660062  .00005877  00000-0  41291-3 0  9996","RA_OF_ASC_NODE":"149.8777","DECAY_DATE":null,"CENTER_NAME":"EARTH","GP_ID":"211800861","TIME_SYSTEM":"UTC","LAUNCH_DATE":"2020-10-06","OBJECT_NAME":"STARLINK-1746","SEMIMAJOR_AXIS":"6925.295","REF_FRAME":"TEME","OBJECT_ID":"2020-070BJ","EPHEMERIS_TYPE":"0","ELEMENT_SET_NO":"999","EPOCH":"2022-09-05T02:33:30.293568","FILE":"3559490","PERIAPSIS":"545.978","SITE":"AFETR","ARG_OF_PERICENTER":"65.8298","BSTAR":"0.00041291000000","TLE_LINE2":"2 46588  53.0538 149.8777 0001706  65.8298 294.2869 15.06417626106625","OBJECT_TYPE":"PAYLOAD","INCLINATION":"53.0538","COUNTRY_CODE":"US","RCS_SIZE":"LARGE","CLASSIFICATION_TYPE":"U","MEAN_ELEMENT_THEORY":"SGP4","APOAPSIS":"548.341","ECCENTRICITY":"0.00017060","MEAN_MOTION":"15.06417626","MEAN_MOTION_DOT":"0.00005877","MEAN_MOTION_DDOT":"0.0000000000000"},{"OBJECT_ID":"2020-070BK","REF_FRAME":"TEME","EPHEMERIS_TYPE":"0","SEMIMAJOR_AXIS":"6925.329","OBJECT_NAME":"STARLINK-1749","TIME_SYSTEM":"UTC","LAUNCH_DATE":"2020-10-06","CENTER_NAME":"EARTH","GP_ID":"211831649","DECAY_DATE":null,"TLE_LINE1":"1 46589U 20070BK  22248.76269622 -.00001836  00000-0 -10435-3 0  9995","RA_OF_ASC_NODE":"146.9331","REV_AT_EPOCH":"10671","NORAD_CAT_ID":"46589","PERIOD":"95.592","MEAN_ANOMALY":"287.3051","MEAN_MOTION_DOT":"-0.00001836","MEAN_MOTION_DDOT":"0.0000000000000","MEAN_MOTION":"15.06406484","APOAPSIS":"548.148","ECCENTRICITY":"0.00013780","RCS_SIZE":"LARGE","CLASSIFICATION_TYPE":"U","MEAN_ELEMENT_THEORY":"SGP4","COUNTRY_CODE":"US","OBJECT_TYPE":"PAYLOAD","INCLINATION":"53.0537","TLE_LINE2":"2 46589  53.0537 146.9331 0001378  72.8089 287.3051 15.06406484106716","BSTAR":"-0.00010435000000","ARG_OF_PERICENTER":"72.8089","SITE":"AFETR","FILE":"3559723","PERIAPSIS":"546.239","ELEMENT_SET_NO":"999","EPOCH":"2022-09-05T18:18:16.953408"}];
